0 DMSP 5D-2 F11 DEB
1 28342U 91082BF  13280.64323036  .00002528  00000-0  14326-2 0  1649
2 28342 098.8580 226.0575 0097219 026.2987 096.6800 14.08563917481419
0 DMSP 5D-2 F11 DEB
1 28342U 91082BF  13282.05121619  .00003569  00000-0  20124-2 0  1659
2 28342 098.8578 227.4411 0097149 022.4139 036.2716 14.08575266481617
0 DMSP 5D-2 F11 DEB
1 28342U 91082BF  13283.82623844  .00003351  00000-0  18907-2 0  1668
2 28342 098.8573 229.1845 0096974 017.4743 037.1465 14.08585854481864
0 DMSP 5D-2 F11 DEB
1 28342U 91082BF  13286.33181344  .00003257  00000-0  18383-2 0  1686
2 28342 098.8579 231.6471 0096890 010.5858 142.5812 14.08598761482219
0 DMSP 5D-2 F11 DEB
1 28342U 91082BF  13287.67507066  .00003911  00000-0  22022-2 0  1690
2 28342 098.8583 232.9668 0096819 006.9015 114.1103 14.08607438482402
0 DMSP 5D-2 F11 DEB
1 28342U 91082BF  13289.08367078  .00004902  00000-0  27532-2 0  1708
2 28342 098.8585 234.3506 0096797 002.9709 057.1065 14.08620525482609
0 DMSP 5D-2 F11 DEB
1 28342U 91082BF  13291.07167972  .00004197  00000-0  23602-2 0  1712
2 28342 098.8593 236.3039 0096684 357.5130 058.2859 14.08636683482888
0 DMSP 5D-2 F11 DEB
1 28342U 91082BF  13293.06111405  .00003936  00000-0  22145-2 0  1725
2 28342 098.8603 238.2585 0096611 352.0499 066.8157 14.08652587483164
